{
  "type": "FeatureCollection",
  "features": [
    {
      "type": "Feature",
      "properties": { "temp_anomaly": 5.2, "name": "Hot Plaza A" },
      "geometry": {
        "type": "Polygon",
        "coordinates": [
          [
            [-79.385, 43.655],
            [-79.382, 43.655],
            [-79.382, 43.652],
            [-79.385, 43.652],
            [-79.385, 43.655]
          ]
        ]
      }
    },
    {
      "type": "Feature",
      "properties": { "temp_anomaly": 3.8, "name": "Concrete Island B" },
      "geometry": {
        "type": "Polygon",
        "coordinates": [
          [
            [-79.378, 43.658],
            [-79.375, 43.658],
            [-79.375, 43.655],
            [-79.378, 43.655],
            [-79.378, 43.658]
          ]
        ]
      }
    }
  ]
}
